*******************************************************************************
JPL/HORIZONS                 78 Diana (A863 EA)            2020-Jun-20 08:06:00
Rec #:      78 (+COV) Soln.date: 2020-May-20_00:57:44   # obs: 2669 (1863-2020)
 
IAU76/J2000 helio. ecliptic osc. elements (au, days, deg., period=Julian yrs):
 
  EPOCH=  2455237.5 ! 2010-Feb-10.00 (TDB)         Residual RMS= .35378
   EC= .2064887406873891   QR= 2.079839289175077   TP= 2455683.5192385721
   OM= 333.4577323775051   W=  152.6638088867816   IN= 8.704449557154812
   A= 2.62105832118471     MA= 256.4040829930665   ADIST= 3.162277353194343
   PER= 4.24349            N= .232267815           ANGMOM= .027249464
   DAN= 3.07298            DDN= 2.12036            L= 126.3913975
   B= 3.9850303            MOID= 1.09895003        TP= 2011-May-02.0192385721
 
Asteroid physical parameters (km, seconds, rotational period in hours):
   GM= n.a.                RAD= 60.3               ROTPER= 7.2991
   H= 8.4                  G= .080                 B-V= .713
                           ALBEDO= .0706           STYP= Ch
 
ASTEROID comments: 
1: soln ref.= JPL#91, OCC=0
2: source=ORB
*******************************************************************************
 
 
*******************************************************************************
Ephemeris / WWW_USER Sat Jun 20 08:06:00 2020 Pasadena, USA      / Horizons
*******************************************************************************
Target body name: 78 Diana (A863 EA)              {source: JPL#91}
Center body name: Solar System Barycenter (0)     {source: DE431}
Center-site name: BODY CENTER
*******************************************************************************
Start time      : A.D. 1969-Jun-28 00:00:00.0000 TDB
Stop  time      : A.D. 2071-May-04 00:00:00.0000 TDB
Step-size       : 7200 minutes
*******************************************************************************
Center geodetic : 0.00000000,0.00000000,0.0000000 {E-lon(deg),Lat(deg),Alt(km)}
Center cylindric: 0.00000000,0.00000000,0.0000000 {E-lon(deg),Dxy(km),Dz(km)}
Center radii    : (undefined)                                                  
Small perturbers: Yes                             {source: SB431-N16}
Output units    : AU-D
Output type     : GEOMETRIC cartesian states
Output format   : 2 (position and velocity)
Reference frame : Ecliptic of J2000.0
*******************************************************************************
Initial IAU76/J2000 heliocentric ecliptic osculating elements (au, days, deg.):
  EPOCH=  2455237.5 ! 2010-Feb-10.00 (TDB)         Residual RMS= .35378        
   EC= .2064887406873891   QR= 2.079839289175077   TP= 2455683.5192385721      
   OM= 333.4577323775051   W=  152.6638088867816   IN= 8.704449557154812       
  Equivalent ICRF heliocentric equatorial cartesian coordinates (au, au/d):
   X= 2.836786243734238E+00  Y=-3.189212575532441E-02  Z= 2.055425839828620E-01
  VX=-2.103195189137663E-03 VY= 8.217933439302119E-03 VZ= 4.817732953997111E-03
Asteroid physical parameters (km, seconds, rotational period in hours):        
   GM= n.a.                RAD= 60.3               ROTPER= 7.2991              
   H= 8.4                  G= .080                 B-V= .713                   
                           ALBEDO= .0706           STYP= Ch                    
*******************************************************************************
            JDTDB,            Calendar Date (TDB),        delta-T,                      X,                      Y,                      Z,                     VX,                     VY,                     VZ,
******************************************************************************************************************************************************************************************************************
$$SOE
2472600.500000000, A.D. 2057-Aug-25 00:00:00.0000,      69.182753,  4.378797295995144E-01,  2.134388424375099E+00,  3.214102902781019E-01, -1.241162126525444E-02,  9.592467594169697E-04, -7.390470823486447E-04,
2472605.500000000, A.D. 2057-Aug-30 00:00:00.0000,      69.182665,  3.756748923968242E-01,  2.138444108951071E+00,  3.176041794731958E-01, -1.246898164289526E-02,  6.623754892936276E-04, -7.833922976340713E-04,
2472610.500000000, A.D. 2057-Sep-04 00:00:00.0000,      69.182587,  3.132034324030321E-01,  2.141005858817111E+00,  3.135764572531330E-01, -1.251823070534160E-02,  3.617124869031412E-04, -8.276834847594359E-04,
2472615.500000000, A.D. 2057-Sep-09 00:00:00.0000,      69.182518,  2.505064954414116E-01,  2.142055322939947E+00,  3.093275176261960E-01, -1.255913397228068E-02,  5.750349393691554E-05, -8.718708170575483E-04,
2472620.500000000, A.D. 2057-Sep-14 00:00:00.0000,      69.182458,  1.876263804746788E-01,  2.141575419309529E+00,  3.048580078537773E-01, -1.259146486587109E-02, -2.499896335708790E-04, -9.159028355116031E-04,
2472625.500000000, A.D. 2057-Sep-19 00:00:00.0000,      69.182409,  1.246064971036266E-01,  2.139550415258249E+00,  3.001688363665748E-01, -1.261500591112548E-02, -5.604890421169908E-04, -9.597265493734602E-04,
2472630.500000000, A.D. 2057-Sep-24 00:00:00.0000,      69.182374,  6.149131699797037E-02,  2.135966006957442E+00,  2.952611801426643E-01, -1.262954996121486E-02, -8.737010929366058E-04, -1.003287550631193E-03,
2472635.500000000, A.D. 2057-Sep-29 00:00:00.0000,      69.182351, -1.673680838800966E-03,  2.130809397611862E+00,  2.901364914794522E-01, -1.263490143645255E-02, -1.189316671465135E-03, -1.046530142097869E-03,
2472640.500000000, A.D. 2057-Oct-04 00:00:00.0000,      69.182340, -6.484207100986207E-02,  2.124069373848992E+00,  2.847965040891909E-01, -1.263087756587235E-02, -1.507011601234818E-03, -1.089397480033771E-03,
2472645.500000000, A.D. 2057-Oct-09 00:00:00.0000,      69.182340, -1.279665488615077E-01,  2.115736379764660E+00,  2.792432384442581E-01, -1.261730962257029E-02, -1.826447168117679E-03, -1.131831731586388E-03,
2472650.500000000, A.D. 2057-Oct-14 00:00:00.0000,      69.182351, -1.909990037608027E-01,  2.105802588065533E+00,  2.734790062989927E-01, -1.259404414309411E-02, -2.147270757622214E-03, -1.173774246632357E-03,
2472655.500000000, A.D. 2057-Oct-19 00:00:00.0000,      69.182374, -2.538905984076038E-01,  2.094261967739724E+00,  2.675064143176400E-01, -1.256094411990519E-02, -2.469116606478975E-03, -1.215165743369088E-03,
2472660.500000000, A.D. 2057-Oct-24 00:00:00.0000,      69.182411, -3.165918540174183E-01,  2.081110347683132E+00,  2.613283667416464E-01, -1.251789015527443E-02, -2.791606668684733E-03, -1.255946506831925E-03,
2472665.500000000, A.D. 2057-Oct-29 00:00:00.0000,      69.182461, -3.790527411523461E-01,  2.066345475711362E+00,  2.549480670341276E-01, -1.246478156459480E-02, -3.114351594944476E-03, -1.296056599319626E-03,
2472670.500000000, A.D. 2057-Nov-03 00:00:00.0000,      69.182522, -4.412227759166893E-01,  2.049967072395687E+00,  2.483690184449293E-01, -1.240153741689161E-02, -3.436951823088815E-03, -1.335436081515565E-03,
2472675.500000000, A.D. 2057-Nov-08 00:00:00.0000,      69.182593, -5.030511211725895E-01,  2.031976879177211E+00,  2.415950234462200E-01, -1.232809750029286E-02, -3.758998775613880E-03, -1.374025242903347E-03,
2472680.500000000, A.D. 2057-Nov-13 00:00:00.0000,      69.182673, -5.644866923702300E-01,  2.012378700236288E+00,  2.346301819960285E-01, -1.224442320040021E-02, -4.080076159029778E-03, -1.411764839896166E-03,
2472685.500000000, A.D. 2057-Nov-18 00:00:00.0000,      69.182764, -6.254782675277254E-01,  1.991178437624502E+00,  2.274788885954644E-01, -1.215049827989350E-02, -4.399761358237105E-03, -1.448596339929592E-03,
2472690.500000000, A.D. 2057-Nov-23 00:00:00.0000,      69.182865, -6.859746008389431E-01,  1.968384119204043E+00,  2.201458281145070E-01, -1.204632954832260E-02, -4.717626917701184E-03, -1.484462169609827E-03,
2472695.500000000, A.D. 2057-Nov-28 00:00:00.0000,      69.182976, -7.459245393343797E-01,  1.944005918984052E+00,  2.126359703711681E-01, -1.193194741193964E-02, -5.033242099751777E-03, -1.519305964861069E-03,
2472700.500000000, A.D. 2057-Dec-03 00:00:00.0000,      69.183095, -8.052771419724555E-01,  1.918056169495776E+00,  2.049545634594865E-01, -1.180740629466946E-02, -5.346174508725715E-03, -1.553072820866215E-03,
2472705.500000000, A.D. 2057-Dec-08 00:00:00.0000,      69.183219, -8.639818004973344E-01,  1.890549365909606E+00,  1.971071258331451E-01, -1.167278492250473E-02, -5.655991767702583E-03, -1.585709539493949E-03,
2472710.500000000, A.D. 2057-Dec-13 00:00:00.0000,      69.183348, -9.219883613612802E-01,  1.861502161666727E+00,  1.890994371628280E-01, -1.152818646356952E-02, -5.962263233694609E-03, -1.617164872039639E-03,
2472715.500000000, A.D. 2057-Dec-18 00:00:00.0000,      69.183482, -9.792472479705070E-01,  1.830933355463311E+00,  1.809375279956303E-01, -1.137373851659185E-02, -6.264561739734056E-03, -1.647389755320350E-03,
2472720.500000000, A.D. 2057-Dec-23 00:00:00.0000,      69.183622, -1.035709582490488E+00,  1.798863869481629E+00,  1.726276682556258E-01, -1.120959294654595E-02, -6.562465351317849E-03, -1.676337538642635E-03,
2472725.500000000, A.D. 2057-Dec-28 00:00:00.0000,      69.183766, -1.091327306450993E+00,  1.765316718842973E+00,  1.641763546381795E-01, -1.103592556884104E-02, -6.855559117732095E-03, -1.703964198939838E-03,
2472730.500000000, A.D. 2058-Jan-02 00:00:00.0000,      69.183911, -1.146053299389958E+00,  1.730316972356339E+00,  1.555902969623781E-01, -1.085293568034830E-02, -7.143436799861473E-03, -1.730228542108036E-03,
2472735.500000000, A.D. 2058-Jan-07 00:00:00.0000,      69.184055, -1.199841494769106E+00,  1.693891704716346E+00,  1.468764035548313E-01, -1.066084543749513E-02, -7.425702560398900E-03, -1.755092388821537E-03,
